FLOCK 4P-1
1 44814U 19081L   20321.73053029  .00001305  00000-0  63025-4 0  9996
2 44814  97.4787  21.6287 0013387  80.2499 280.0248 15.20374776 54000
FLOCK 4P-1
1 44814U 19081L   20321.73053029  .00001305  00000-0  63025-4 0  9996
2 44814  97.4787  21.6287 0013387  80.2499 280.0248 15.20374776 54000
FLOCK 4P-1
1 44814U 19081L   20321.73053029  .00001305  00000-0  63025-4 0  9996
2 44814  97.4787  21.6287 0013387  80.2495 280.0252 15.20374775 54000
FLOCK 4P-1
1 44814U 19081L   20321.73053029  .00001305  00000-0  63025-4 0  9996
2 44814  97.4787  21.6287 0013387  80.2499 280.0248 15.20374776 54000
FLOCK 4P-1
1 44814U 19081L   20321.73053029  .00001305  00000-0  63025-4 0  9996
2 44814  97.4787  21.6287 0013387  80.2495 280.0252 15.20374775 54000
FLOCK 4P-1
1 44814U 19081L   20321.73053029  .00001305  00000-0  63025-4 0  9996
2 44814  97.4787  21.6287 0013387  80.2499 280.0248 15.20374776 54000
FLOCK 4P-1
1 44814U 19081L   20321.73053029  .00001305  00000-0  63025-4 0  9996
2 44814  97.4787  21.6287 0013387  80.2498 280.0249 15.20374776 54000
FLOCK 4P-1
1 44814U 19081L   20321.73053029  .00001305  00000-0  63025-4 0  9996
2 44814  97.4787  21.6287 0013387  80.2494 280.0253 15.20374775 54000
FLOCK 4P-1
1 44814U 19081L   20321.73053029  .00001305  00000-0  63025-4 0  9996
2 44814  97.4787  21.6287 0013387  80.2499 280.0248 15.20374776 54000
FLOCK 4P-1
1 44814U 19081L   20321.73053029  .00001305  00000-0  63025-4 0  9996
2 44814  97.4787  21.6287 0013387  80.2499 280.0248 15.20374776 54000
FLOCK 4P-1
1 44814U 19081L   20321.73053029  .00001305  00000-0  63025-4 0  9996
2 44814  97.4787  21.6287 0013387  80.2498 280.0249 15.20374776 54000
FLOCK 4P-1
1 44814U 19081L   20321.73053029  .00001305  00000-0  63025-4 0  9996
2 44814  97.4787  21.6287 0013387  80.2499 280.0248 15.20374776 54000
FLOCK 4P-1
1 44814U 19081L   20321.73053029  .00001305  00000-0  63025-4 0  9996
2 44814  97.4787  21.6287 0013387  80.2498 280.0249 15.20374776 54000
FLOCK 4P-1
1 44814U 19081L   20321.73053029  .00001305  00000-0  63025-4 0  9996
2 44814  97.4787  21.6287 0013387  80.2499 280.0248 15.20374776 54000
FLOCK 4P-1
1 44814U 19081L   20321.73053029  .00001305  00000-0  63025-4 0  9996
2 44814  97.4787  21.6287 0013387  80.2499 280.0248 15.20374776 54000
FLOCK 4P-1
1 44814U 19081L   20321.73053029  .00001305  00000-0  63025-4 0  9996
2 44814  97.4787  21.6287 0013387  80.2495 280.0252 15.20374775 54000
FLOCK 4P-1
1 44814U 19081L   20321.73053029  .00001305  00000-0  63025-4 0  9996
2 44814  97.4787  21.6287 0013387  80.2500 280.0247 15.20374776 54002
FLOCK 4P-1
1 44814U 19081L   20321.73053029  .00001305  00000-0  63025-4 0  9996
2 44814  97.4787  21.6287 0013387  80.2500 280.0247 15.20374776 54002
FLOCK 4P-1
1 44814U 19081L   20321.73053029  .00001305  00000-0  63025-4 0  9996
2 44814  97.4787  21.6287 0013387  80.2499 280.0248 15.20374776 54000
FLOCK 4P-1
1 44814U 19081L   20321.73053029  .00001305  00000-0  63025-4 0  9996
2 44814  97.4787  21.6287 0013387  80.2498 280.0249 15.20374776 54000
FLOCK 4P-1
1 44814U 19081L   20321.73053029  .00001305  00000-0  63025-4 0  9996
2 44814  97.4787  21.6287 0013387  80.2499 280.0248 15.20374776 54000
FLOCK 4P-1
1 44814U 19081L   20321.73053029  .00001305  00000-0  63025-4 0  9996
2 44814  97.4787  21.6287 0013387  80.2498 280.0249 15.20374776 54000
FLOCK 4P-1
1 44814U 19081L   20321.73053029  .00001305  00000-0  63025-4 0  9996
2 44814  97.4787  21.6287 0013387  80.2494 280.0253 15.20374775 54000
FLOCK 4P-1
1 44814U 19081L   20321.73053029  .00001305  00000-0  63025-4 0  9996
2 44814  97.4787  21.6287 0013387  80.2495 280.0252 15.20374775 54000
FLOCK 4P-1
1 44814U 19081L   20321.73053029  .00001305  00000-0  63025-4 0  9996
2 44814  97.4787  21.6287 0013387  80.2494 280.0253 15.20374775 54000
FLOCK 4P-1
1 44814U 19081L   20321.73053029  .00001305  00000-0  63025-4 0  9996
2 44814  97.4787  21.6287 0013387  80.2499 280.0248 15.20374776 54000
FLOCK 4P-1
1 44814U 19081L   20321.73053029  .00001305  00000-0  63025-4 0  9996
2 44814  97.4787  21.6287 0013387  80.2495 280.0252 15.20374775 54000
FLOCK 4P-1
1 44814U 19081L   20321.73053029  .00001305  00000-0  63025-4 0  9996
2 44814  97.4787  21.6287 0013387  80.2494 280.0253 15.20374775 54000
FLOCK 4P-1
1 44814U 19081L   20321.73053029  .00001305  00000-0  63025-4 0  9996
2 44814  97.4787  21.6287 0013387  80.2498 280.0249 15.20374776 54000
FLOCK 4P-1
1 44814U 19081L   20321.73053029  .00001305  00000-0  63025-4 0  9996
2 44814  97.4787  21.6287 0013387  80.2494 280.0253 15.20374775 54000
FLOCK 4P-1
1 44814U 19081L   20321.73053029  .00001305  00000-0  63025-4 0  9996
2 44814  97.4787  21.6287 0013387  80.2499 280.0248 15.20374776 54000
FLOCK 4P-1
1 44814U 19081L   20321.73053029  .00001305  00000-0  63025-4 0  9996
2 44814  97.4787  21.6287 0013387  80.2499 280.0248 15.20374776 54000
FLOCK 4P-1
1 44814U 19081L   20321.73053029  .00001305  00000-0  63025-4 0  9996
2 44814  97.4787  21.6287 0013387  80.2498 280.0249 15.20374776 54000
FLOCK 4P-1
1 44814U 19081L   20321.73053029  .00001305  00000-0  63025-4 0  9996
2 44814  97.4787  21.6287 0013387  80.2498 280.0249 15.20374776 54000
FLOCK 4P-1
1 44814U 19081L   20321.73053029  .00001305  00000-0  63025-4 0  9996
2 44814  97.4787  21.6287 0013387  80.2500 280.0247 15.20374776 54002
FLOCK 4P-1
1 44814U 19081L   20321.73053029  .00001305  00000-0  63025-4 0  9996
2 44814  97.4787  21.6287 0013387  80.2499 280.0248 15.20374776 54000
FLOCK 4P-1
1 44814U 19081L   20321.73053029  .00001305  00000-0  63025-4 0  9996
2 44814  97.4787  21.6287 0013387  80.2499 280.0248 15.20374776 54000
FLOCK 4P-1
1 44814U 19081L   20321.73053029  .00001305  00000-0  63025-4 0  9996
2 44814  97.4787  21.6287 0013387  80.2499 280.0248 15.20374776 54000
FLOCK 4P-1
1 44814U 19081L   20321.73053029  .00001305  00000-0  63025-4 0  9996
2 44814  97.4787  21.6287 0013387  80.2499 280.0248 15.20374776 54000
FLOCK 4P-1
1 44814U 19081L   20321.73053029  .00001305  00000-0  63025-4 0  9996
2 44814  97.4787  21.6287 0013387  80.2499 280.0248 15.20374776 54000
FLOCK 4P-1
1 44814U 19081L   20321.73053029  .00001305  00000-0  63025-4 0  9996
2 44814  97.4787  21.6287 0013387  80.2499 280.0248 15.20374776 54000
FLOCK 4P-1
1 44814U 19081L   20321.73053029  .00001305  00000-0  63025-4 0  9996
2 44814  97.4787  21.6287 0013387  80.2494 280.0253 15.20374775 54000
FLOCK 4P-1
1 44814U 19081L   20321.73053029  .00001305  00000-0  63025-4 0  9996
2 44814  97.4787  21.6287 0013387  80.2499 280.0248 15.20374776 54000
FLOCK 4P-1
1 44814U 19081L   20321.73053029  .00001305  00000-0  63025-4 0  9996
2 44814  97.4787  21.6287 0013387  80.2500 280.0247 15.20374776 54002
FLOCK 4P-1
1 44814U 19081L   20321.73053029  .00001305  00000-0  63025-4 0  9996
2 44814  97.4787  21.6287 0013387  80.2498 280.0249 15.20374776 54000
FLOCK 4P-1
1 44814U 19081L   20321.73053029  .00001305  00000-0  63025-4 0  9996
2 44814  97.4787  21.6287 0013387  80.2499 280.0248 15.20374776 54000
FLOCK 4P-1
1 44814U 19081L   20321.73053029  .00001305  00000-0  63025-4 0  9996
2 44814  97.4787  21.6287 0013387  80.2500 280.0247 15.20374776 54002
FLOCK 4P-1
1 44814U 19081L   20321.73053029  .00001305  00000-0  63025-4 0  9996
2 44814  97.4787  21.6287 0013387  80.2500 280.0247 15.20374776 54002
FLOCK 4P-1
1 44814U 19081L   20321.73053029  .00001305  00000-0  63025-4 0  9996
2 44814  97.4787  21.6287 0013387  80.2498 280.0249 15.20374776 54000
FLOCK 4P-1
1 44814U 19081L   20321.73053029  .00001305  00000-0  63025-4 0  9996
2 44814  97.4787  21.6287 0013387  80.2499 280.0248 15.20374776 54000
FLOCK 4P-1
1 44814U 19081L   20321.73053029  .00001305  00000-0  63025-4 0  9996
2 44814  97.4787  21.6287 0013387  80.2499 280.0248 15.20374776 54000
FLOCK 4P-1
1 44814U 19081L   20321.73053029  .00001305  00000-0  63025-4 0  9996
2 44814  97.4787  21.6287 0013387  80.2494 280.0253 15.20374775 54000
FLOCK 4P-1
1 44814U 19081L   20321.73053029  .00001305  00000-0  63025-4 0  9996
2 44814  97.4787  21.6287 0013387  80.2500 280.0247 15.20374776 54002
FLOCK 4P-1
1 44814U 19081L   20321.73053029  .00001305  00000-0  63025-4 0  9996
2 44814  97.4787  21.6287 0013387  80.2499 280.0248 15.20374776 54000
FLOCK 4P-1
1 44814U 19081L   20321.73053029  .00001305  00000-0  63025-4 0  9996
2 44814  97.4787  21.6287 0013387  80.2499 280.0248 15.20374776 54000
FLOCK 4P-1
1 44814U 19081L   20321.73053029  .00001305  00000-0  63025-4 0  9996
2 44814  97.4787  21.6287 0013387  80.2499 280.0248 15.20374776 54000
FLOCK 4P-1
1 44814U 19081L   20321.73053029  .00001305  00000-0  63025-4 0  9996
2 44814  97.4787  21.6287 0013387  80.2498 280.0249 15.20374776 54000
FLOCK 4P-1
1 44814U 19081L   20321.73053029  .00001305  00000-0  63025-4 0  9996
2 44814  97.4787  21.6287 0013387  80.2499 280.0248 15.20374776 54000
FLOCK 4P-1
1 44814U 19081L   20321.73053029  .00001305  00000-0  63025-4 0  9996
2 44814  97.4787  21.6287 0013387  80.2500 280.0247 15.20374776 54002
FLOCK 4P-1
1 44814U 19081L   20321.73053029  .00001305  00000-0  63025-4 0  9996
2 44814  97.4787  21.6287 0013387  80.2498 280.0249 15.20374776 54000
FLOCK 4P-1
1 44814U 19081L   20321.73053029  .00001305  00000-0  63025-4 0  9996
2 44814  97.4787  21.6287 0013387  80.2494 280.0253 15.20374775 54000
FLOCK 4P-1
1 44814U 19081L   20321.73053029  .00001305  00000-0  63025-4 0  9996
2 44814  97.4787  21.6287 0013387  80.2499 280.0248 15.20374776 54000
FLOCK 4P-1
1 44814U 19081L   20321.73053029  .00001305  00000-0  63025-4 0  9996
2 44814  97.4787  21.6287 0013387  80.2495 280.0252 15.20374775 54000
FLOCK 4P-1
1 44814U 19081L   20321.73053029  .00001305  00000-0  63025-4 0  9996
2 44814  97.4787  21.6287 0013387  80.2499 280.0248 15.20374776 54000
FLOCK 4P-1
1 44814U 19081L   20321.73053029  .00001305  00000-0  63025-4 0  9996
2 44814  97.4787  21.6287 0013387  80.2499 280.0248 15.20374776 54000
FLOCK 4P-1
1 44814U 19081L   20321.73053029  .00001305  00000-0  63025-4 0  9996
2 44814  97.4787  21.6287 0013387  80.2498 280.0249 15.20374776 54000
